{
  "links" : {
    "next" : "https://api.nasa.gov/neo/rest/v1/feed?start_date=2009-11-09&end_date=2009-11-09&detailed=true&api_key=t0TVs3DtDT2H8Oy2Zy8m2eVrNsAVKAexjcZXUckd",
    "prev" : "https://api.nasa.gov/neo/rest/v1/feed?start_date=2009-11-07&end_date=2009-11-07&detailed=true&api_key=t0TVs3DtDT2H8Oy2Zy8m2eVrNsAVKAexjcZXUckd",
    "self" : "https://api.nasa.gov/neo/rest/v1/feed?start_date=2009-11-08&end_date=2009-11-08&detailed=true&api_key=t0TVs3DtDT2H8Oy2Zy8m2eVrNsAVKAexjcZXUckd"
  },
  "element_count" : 7,
  "near_earth_objects" : {
    "2009-11-08" : [ {
      "links" : {
        "self" : "https://api.nasa.gov/neo/rest/v1/neo/3736412?api_key=t0TVs3DtDT2H8Oy2Zy8m2eVrNsAVKAexjcZXUckd"
      },
      "neo_reference_id" : "3736412",
      "name" : "(2015 XX169)",
      "nasa_jpl_url" : "http://ssd.jpl.nasa.gov/sbdb.cgi?sstr=3736412",
      "absolute_magnitude_h" : 27.5,
      "estimated_diameter" : {
        "kilometers" : {
          "estimated_diameter_min" : 0.008405334,
          "estimated_diameter_max" : 0.0187948982
        },
        "meters" : {
          "estimated_diameter_min" : 8.4053340207,
          "estimated_diameter_max" : 18.7948982439
        },
        "miles" : {
          "estimated_diameter_min" : 0.0052228308,
          "estimated_diameter_max" : 0.0116786047
        },
        "feet" : {
          "estimated_diameter_min" : 27.5765560686,
          "estimated_diameter_max" : 61.6630539546
        }
      },
      "is_potentially_hazardous_asteroid" : false,
      "close_approach_data" : [ {
        "close_approach_date" : "2009-11-08",
        "epoch_date_close_approach" : 1257667200000,
        "relative_velocity" : {
          "kilometers_per_second" : "5.1158212779",
          "kilometers_per_hour" : "18416.9566005688",
          "miles_per_hour" : "11443.5806166146"
        },
        "miss_distance" : {
          "astronomical" : "0.1772972704",
          "lunar" : "68.9686355591",
          "kilometers" : "26523294",
          "miles" : "16480810"
        },
        "orbiting_body" : "Earth"
      } ],
      "orbital_data" : {
        "orbit_id" : "7",
        "orbit_determination_date" : "2017-04-06 08:29:59",
        "orbit_uncertainty" : "1",
        "minimum_orbit_intersection" : ".0156394",
        "jupiter_tisserand_invariant" : "6.053",
        "epoch_osculation" : "2458000.5",
        "eccentricity" : ".184214654871776",
        "semi_major_axis" : "1.000858529653734",
        "inclination" : "7.640727040154666",
        "ascending_node_longitude" : "256.6239943844131",
        "orbital_period" : "365.7273750874498",
        "perihelion_distance" : ".816485721038098",
        "perihelion_argument" : "283.5741142375506",
        "aphelion_distance" : "1.18523133826937",
        "perihelion_time" : "2458180.913565780379",
        "mean_anomaly" : "182.4117522911526",
        "mean_motion" : ".9843397692445629",
        "equinox" : "J2000"
      }
    } ]
  }
}